[{"OBJECT_NAME":"STARLINK-3060","OBJECT_ID":"2021-082AB","EPOCH":"2026-03-09T21:31:48.232992","MEAN_MOTION":14.98331265,"ECCENTRICITY":0.00028023,"INCLINATION":69.999,"RA_OF_ASC_NODE":253.9239,"ARG_OF_PERICENTER":264.0018,"MEAN_ANOMALY":96.0821,"EPHEMERIS_TYPE":0,"CLASSIFICATION_TYPE":"U","NORAD_CAT_ID":49155,"ELEMENT_SET_NO":999,"REV_AT_EPOCH":24807,"BSTAR":-3.0736696e-5,"MEAN_MOTION_DOT":-4.6e-6,"MEAN_MOTION_DDOT":0},{"OBJECT_NAME":"FENGYUN 1C DEB","OBJECT_ID":"1999-025DZR","EPOCH":"2026-03-05T18:23:02.039712","MEAN_MOTION":14.44079976,"ECCENTRICITY":0.0254198,"INCLINATION":98.2326,"RA_OF_ASC_NODE":48.4457,"ARG_OF_PERICENTER":237.9608,"MEAN_ANOMALY":119.6665,"EPHEMERIS_TYPE":0,"CLASSIFICATION_TYPE":"U","NORAD_CAT_ID":36695,"ELEMENT_SET_NO":999,"REV_AT_EPOCH":90766,"BSTAR":0.00026075166,"MEAN_MOTION_DOT":1.268e-5,"MEAN_MOTION_DDOT":0}]
